NOAA 15                 
1 25338U 98030A   23236.76220231  .00000230  00000+0  11348-3 0  9994
2 25338  98.6029 264.6363 0011505 111.9259 248.3146 14.26377150315033
NOAA 18                 
1 28654U 05018A   23236.75405133  .00000227  00000+0  14566-3 0  9998
2 28654  98.9060 310.8032 0014364 181.8762 178.2359 14.12992771941256
NOAA 19                 
1 33591U 09005A   23236.73639694  .00000199  00000+0  13149-3 0  9997
2 33591  99.0944 283.7415 0014589  53.2817 306.9692 14.12809016749626
METOP-B                 
1 38771U 12049A   23236.80518791  .00000138  00000+0  82759-4 0  9993
2 38771  98.6733 295.0150 0001199 106.6955   3.5990 14.21505442567291
SARAL                   
1 39086U 13009A   23235.09595229  .00000142  00000+0  68923-4 0  9993
2 39086  98.5497  59.4165 0003089  88.1932 271.9605 14.32249035548269
METOP-C                 
1 43689U 18087A   23236.75027986  .00000131  00000+0  79827-4 0  9995
2 43689  98.6779 295.1325 0002029 201.4604 158.6489 14.21508300248868
ANGELS                  
1 44876U 19092D   23234.75824716  .00005037  00000+0  22314-3 0  9993
2 44876  97.4797  59.0124 0009590 297.2983  62.7276 15.22050723203741
GAZELLE                 
1 54023U 22127A   23234.98404447  .00000230  00000+0  83208-4 0  9991
2 54023  98.3269 231.2473 0014531  57.6955 302.5639 14.41882753 46007
EOS-6 (OCEANSAT-3)      
1 54361U 22158A   23236.74543314  .00000485  00000+0  14547-3 0  9994
2 54361  98.3539 332.8044 0001100  93.3729 266.7590 14.46981635 39258
